[{"OBJECT_NAME":"STARLINK-2273","OBJECT_ID":"2021-024S","EPOCH":"2026-03-10T00:00:02.999808","MEAN_MOTION":15.21044249,"ECCENTRICITY":7.23e-5,"INCLINATION":53.1152,"RA_OF_ASC_NODE":294.6507,"ARG_OF_PERICENTER":119.4489,"MEAN_ANOMALY":235.3564,"EPHEMERIS_TYPE":0,"CLASSIFICATION_TYPE":"U","NORAD_CAT_ID":47993,"ELEMENT_SET_NO":999,"REV_AT_EPOCH":569,"BSTAR":0.0044234454,"MEAN_MOTION_DOT":0.0010051,"MEAN_MOTION_DDOT":0},{"OBJECT_NAME":"SUPERVIEW NEO-3 02","OBJECT_ID":"2025-051A","EPOCH":"2026-03-09T23:45:14.766336","MEAN_MOTION":15.23140616,"ECCENTRICITY":0.00022991,"INCLINATION":97.4564,"RA_OF_ASC_NODE":148.8655,"ARG_OF_PERICENTER":127.1916,"MEAN_ANOMALY":232.9531,"EPHEMERIS_TYPE":0,"CLASSIFICATION_TYPE":"U","NORAD_CAT_ID":63208,"ELEMENT_SET_NO":999,"REV_AT_EPOCH":5473,"BSTAR":0.00055163921,"MEAN_MOTION_DOT":0.00012967,"MEAN_MOTION_DDOT":0}]
